GLOBALSTAR M035         
1 25851U 99037A   24145.43817240  .00000013  00000+0  28799-2 0  9994
2 25851  51.9927 201.9060 0013133  73.5699  24.6725 11.04530855 53314
GLOBALSTAR M032         
1 25852U 99037B   24144.88048532 -.00000053  00000+0  44685-3 0  9991
2 25852  51.9975  55.2056 0009383 230.8311 129.1656 11.19052893 91205
GLOBALSTAR M051         
1 25853U 99037C   24144.62217905 -.00000036  00000+0  87428-3 0  9999
2 25853  51.9798 260.6627 0001445 213.3259 146.7461 11.42197154 87876
GLOBALSTAR M030         
1 25854U 99037D   24145.19566984 -.00000088  00000+0 -28096-3 0  9991
2 25854  51.9872  90.1170 0004118  68.5329 291.5927 11.55096016105198
GLOBALSTAR M048         
1 25872U 99041A   24144.38052700 -.00000028  00000+0  11414-2 0  9990
2 25872  51.9337 181.2076 0013816 230.1957 227.6939 11.33846634 80763
GLOBALSTAR M026         
1 25873U 99041B   24144.82888403 -.00000125  00000+0 -22254-2 0  9990
2 25873  52.0036 325.3212 0001047 349.6881 114.4031 11.06836287105374
GLOBALSTAR M043         
1 25874U 99041C   24145.15653992 -.00000099  00000+0 -93032-3 0  9994
2 25874  51.9409 271.5042 0012157  10.9883  47.7682 11.25681290 79096
GLOBALSTAR M028         
1 25875U 99041D   24144.67856616 -.00000076  00000+0  15698-3 0  9995
2 25875  51.9630 274.4862 0062715 305.5552  53.9473 12.50555970141446
